STARLINK-3774           
1 52680U 22053AA  23324.30899800  .00000883  00000+0  73535-4 0  9999
2 52680  53.2183 316.7449 0001639  91.2277 268.8902 15.08841561 84282
STARLINK-4068           
1 52681U 22053AB  23324.22339587  .00004433  00000+0  29640-3 0  9994
2 52681  53.2169 317.1227 0001389  91.2017 268.9134 15.08847002 84251
STARLINK-4017           
1 52682U 22053AC  23324.36692064  .00001562  00000+0  11622-3 0  9993
2 52682  53.2167 316.4802 0001451  89.7764 270.3394 15.08843438 84290
STARLINK-4039           
1 52683U 22053AD  23324.34851379  .00002516  00000+0  17610-3 0  9991
2 52683  53.2183 316.5601 0001703  88.4211 271.6976 15.08844730 84274
STARLINK-4014           
1 52684U 22053AE  23324.36323987  .00000670  00000+0  60209-4 0  9995
2 52684  53.2182 316.4938 0001787  96.5243 263.5953 15.08838939 84272
STARLINK-4029           
1 52685U 22053AF  23324.47363505  .00001888  00000+0  13663-3 0  9991
2 52685  53.2186 315.9961 0001682  93.9516 266.1669 15.08847452 84278
STARLINK-4005           
1 52686U 22053AG  23324.28596284  .00002062  00000+0  14756-3 0  9992
2 52686  53.2178 316.8428 0001808  92.3885 267.7315 15.08853432 84258
STARLINK-3981           
1 52687U 22053AH  23324.40371574 -.00000243  00000+0  28413-5 0  9997
2 52687  53.2184 316.3102 0001642  95.6062 264.5118 15.08844327 84269
STARLINK-4032           
1 52688U 22053AJ  23324.26753971  .00000943  00000+0  77296-4 0  9995
2 52688  53.2189 316.8042 0001609  96.6746 263.4430 15.08847714 84242
STARLINK-4078           
1 52689U 22053AK  23324.26019398  .00003483  00000+0  23675-3 0  9997
2 52689  53.2178 316.9562 0001689  91.8052 268.3133 15.08848080 84278
STARLINK-4035           
1 52690U 22053AL  23324.27859399  .00000832  00000+0  70384-4 0  9998
2 52690  53.2180 316.8738 0001449  92.6242 267.4916 15.08843526 84247
STARLINK-3945           
1 52691U 22053AM  23324.34582135  .00006125  00000+0  40239-3 0  9994
2 52691  53.2181 316.8213 0001522  90.1564 269.9602 15.08858269 84282
STARLINK-3993           
1 52692U 22053AN  23324.37419654  .00007280  00000+0  47428-3 0  9993
2 52692  53.2173 316.1735 0001683  92.0914 268.0270 15.08895514 84290
STARLINK-3946           
1 52693U 22053AP  23324.38163486  .00004938  00000+0  32802-3 0  9991
2 52693  53.2169 316.4126 0001751  87.0467 273.0726 15.08850527 84293
STARLINK-4072           
1 52694U 22053AQ  23324.46259211  .00001092  00000+0  86647-4 0  9998
2 52694  53.2187 316.0441 0001611 100.2936 259.8238 15.08848794 84309
STARLINK-4041           
1 52695U 22053AR  23324.30203287  .00001414  00000+0  10690-3 0  9996
2 52695  53.2171 321.5692 0001528  92.7674 267.3493 15.08842995 84228
STARLINK-4025           
1 52696U 22053AS  23324.38530943  .00000734  00000+0  64170-4 0  9994
2 52696  53.2176 316.3931 0001542  96.5681 263.5487 15.08852801 83898
