[{"OBJECT_NAME":"STARLINK-3774","OBJECT_ID":"2022-053AA","EPOCH":"2023-11-20T07:24:57.427200","MEAN_MOTION":15.08841561,"ECCENTRICITY":0.0001639,"INCLINATION":53.2183,"RA_OF_ASC_NODE":316.7449,"ARG_OF_PERICENTER":91.2277,"MEAN_ANOMALY":268.8902,"EPHEMERIS_TYPE":0,"CLASSIFICATION_TYPE":"U","NORAD_CAT_ID":52680,"ELEMENT_SET_NO":999,"REV_AT_EPOCH":8428,"BSTAR":7.3535e-5,"MEAN_MOTION_DOT":8.83e-6,"MEAN_MOTION_DDOT":0},{"OBJECT_NAME":"STARLINK-4068","OBJECT_ID":"2022-053AB","EPOCH":"2023-11-20T05:21:41.403168","MEAN_MOTION":15.08847002,"ECCENTRICITY":0.0001389,"INCLINATION":53.2169,"RA_OF_ASC_NODE":317.1227,"ARG_OF_PERICENTER":91.2017,"MEAN_ANOMALY":268.9134,"EPHEMERIS_TYPE":0,"CLASSIFICATION_TYPE":"U","NORAD_CAT_ID":52681,"ELEMENT_SET_NO":999,"REV_AT_EPOCH":8425,"BSTAR":0.0002964,"MEAN_MOTION_DOT":4.433e-5,"MEAN_MOTION_DDOT":0},{"OBJECT_NAME":"STARLINK-4017","OBJECT_ID":"2022-053AC","EPOCH":"2023-11-20T08:48:21.943296","MEAN_MOTION":15.08843438,"ECCENTRICITY":0.0001451,"INCLINATION":53.2167,"RA_OF_ASC_NODE":316.4802,"ARG_OF_PERICENTER":89.7764,"MEAN_ANOMALY":270.3394,"EPHEMERIS_TYPE":0,"CLASSIFICATION_TYPE":"U","NORAD_CAT_ID":52682,"ELEMENT_SET_NO":999,"REV_AT_EPOCH":8429,"BSTAR":0.00011622,"MEAN_MOTION_DOT":1.562e-5,"MEAN_MOTION_DDOT":0},{"OBJECT_NAME":"STARLINK-4039","OBJECT_ID":"2022-053AD","EPOCH":"2023-11-20T08:21:51.591456","MEAN_MOTION":15.0884473,"ECCENTRICITY":0.0001703,"INCLINATION":53.2183,"RA_OF_ASC_NODE":316.5601,"ARG_OF_PERICENTER":88.4211,"MEAN_ANOMALY":271.6976,"EPHEMERIS_TYPE":0,"CLASSIFICATION_TYPE":"U","NORAD_CAT_ID":52683,"ELEMENT_SET_NO":999,"REV_AT_EPOCH":8427,"BSTAR":0.0001761,"MEAN_MOTION_DOT":2.516e-5,"MEAN_MOTION_DDOT":0},{"OBJECT_NAME":"STARLINK-4014","OBJECT_ID":"2022-053AE","EPOCH":"2023-11-20T08:43:03.924768","MEAN_MOTION":15.08838939,"ECCENTRICITY":0.0001787,"INCLINATION":53.2182,"RA_OF_ASC_NODE":316.4938,"ARG_OF_PERICENTER":96.5243,"MEAN_ANOMALY":263.5953,"EPHEMERIS_TYPE":0,"CLASSIFICATION_TYPE":"U","NORAD_CAT_ID":52684,"ELEMENT_SET_NO":999,"REV_AT_EPOCH":8427,"BSTAR":6.0209e-5,"MEAN_MOTION_DOT":6.7e-6,"MEAN_MOTION_DDOT":0},{"OBJECT_NAME":"STARLINK-4029","OBJECT_ID":"2022-053AF","EPOCH":"2023-11-20T11:22:02.068320","MEAN_MOTION":15.08847452,"ECCENTRICITY":0.0001682,"INCLINATION":53.2186,"RA_OF_ASC_NODE":315.9961,"ARG_OF_PERICENTER":93.9516,"MEAN_ANOMALY":266.1669,"EPHEMERIS_TYPE":0,"CLASSIFICATION_TYPE":"U","NORAD_CAT_ID":52685,"ELEMENT_SET_NO":999,"REV_AT_EPOCH":8427,"BSTAR":0.00013663,"MEAN_MOTION_DOT":1.888e-5,"MEAN_MOTION_DDOT":0},{"OBJECT_NAME":"STARLINK-4005","OBJECT_ID":"2022-053AG","EPOCH":"2023-11-20T06:51:47.189376","MEAN_MOTION":15.08853432,"ECCENTRICITY":0.0001808,"INCLINATION":53.2178,"RA_OF_ASC_NODE":316.8428,"ARG_OF_PERICENTER":92.3885,"MEAN_ANOMALY":267.7315,"EPHEMERIS_TYPE":0,"CLASSIFICATION_TYPE":"U","NORAD_CAT_ID":52686,"ELEMENT_SET_NO":999,"REV_AT_EPOCH":8425,"BSTAR":0.00014756,"MEAN_MOTION_DOT":2.062e-5,"MEAN_MOTION_DDOT":0},{"OBJECT_NAME":"STARLINK-3981","OBJECT_ID":"2022-053AH","EPOCH":"2023-11-20T09:41:21.039936","MEAN_MOTION":15.08844327,"ECCENTRICITY":0.0001642,"INCLINATION":53.2184,"RA_OF_ASC_NODE":316.3102,"ARG_OF_PERICENTER":95.6062,"MEAN_ANOMALY":264.5118,"EPHEMERIS_TYPE":0,"CLASSIFICATION_TYPE":"U","NORAD_CAT_ID":52687,"ELEMENT_SET_NO":999,"REV_AT_EPOCH":8426,"BSTAR":2.8413e-6,"MEAN_MOTION_DOT":-2.43e-6,"MEAN_MOTION_DDOT":0},{"OBJECT_NAME":"STARLINK-4032","OBJECT_ID":"2022-053AJ","EPOCH":"2023-11-20T06:25:15.430944","MEAN_MOTION":15.08847714,"ECCENTRICITY":0.0001609,"INCLINATION":53.2189,"RA_OF_ASC_NODE":316.8042,"ARG_OF_PERICENTER":96.6746,"MEAN_ANOMALY":263.443,"EPHEMERIS_TYPE":0,"CLASSIFICATION_TYPE":"U","NORAD_CAT_ID":52688,"ELEMENT_SET_NO":999,"REV_AT_EPOCH":8424,"BSTAR":7.7296e-5,"MEAN_MOTION_DOT":9.43e-6,"MEAN_MOTION_DDOT":0},{"OBJECT_NAME":"STARLINK-4078","OBJECT_ID":"2022-053AK","EPOCH":"2023-11-20T06:14:40.759872","MEAN_MOTION":15.0884808,"ECCENTRICITY":0.0001689,"INCLINATION":53.2178,"RA_OF_ASC_NODE":316.9562,"ARG_OF_PERICENTER":91.8052,"MEAN_ANOMALY":268.3133,"EPHEMERIS_TYPE":0,"CLASSIFICATION_TYPE":"U","NORAD_CAT_ID":52689,"ELEMENT_SET_NO":999,"REV_AT_EPOCH":8427,"BSTAR":0.00023675,"MEAN_MOTION_DOT":3.483e-5,"MEAN_MOTION_DDOT":0},{"OBJECT_NAME":"STARLINK-4035","OBJECT_ID":"2022-053AL","EPOCH":"2023-11-20T06:41:10.520736","MEAN_MOTION":15.08843526,"ECCENTRICITY":0.0001449,"INCLINATION":53.218,"RA_OF_ASC_NODE":316.8738,"ARG_OF_PERICENTER":92.6242,"MEAN_ANOMALY":267.4916,"EPHEMERIS_TYPE":0,"CLASSIFICATION_TYPE":"U","NORAD_CAT_ID":52690,"ELEMENT_SET_NO":999,"REV_AT_EPOCH":8424,"BSTAR":7.0384e-5,"MEAN_MOTION_DOT":8.32e-6,"MEAN_MOTION_DDOT":0},{"OBJECT_NAME":"STARLINK-3945","OBJECT_ID":"2022-053AM","EPOCH":"2023-11-20T08:17:58.964640","MEAN_MOTION":15.08858269,"ECCENTRICITY":0.0001522,"INCLINATION":53.2181,"RA_OF_ASC_NODE":316.8213,"ARG_OF_PERICENTER":90.1564,"MEAN_ANOMALY":269.9602,"EPHEMERIS_TYPE":0,"CLASSIFICATION_TYPE":"U","NORAD_CAT_ID":52691,"ELEMENT_SET_NO":999,"REV_AT_EPOCH":8428,"BSTAR":0.00040239,"MEAN_MOTION_DOT":6.125e-5,"MEAN_MOTION_DDOT":0},{"OBJECT_NAME":"STARLINK-3993","OBJECT_ID":"2022-053AN","EPOCH":"2023-11-20T08:58:50.581056","MEAN_MOTION":15.08895514,"ECCENTRICITY":0.0001683,"INCLINATION":53.2173,"RA_OF_ASC_NODE":316.1735,"ARG_OF_PERICENTER":92.0914,"MEAN_ANOMALY":268.027,"EPHEMERIS_TYPE":0,"CLASSIFICATION_TYPE":"U","NORAD_CAT_ID":52692,"ELEMENT_SET_NO":999,"REV_AT_EPOCH":8429,"BSTAR":0.00047428,"MEAN_MOTION_DOT":7.28e-5,"MEAN_MOTION_DDOT":0},{"OBJECT_NAME":"STARLINK-3946","OBJECT_ID":"2022-053AP","EPOCH":"2023-11-20T09:09:33.251904","MEAN_MOTION":15.08850527,"ECCENTRICITY":0.0001751,"INCLINATION":53.2169,"RA_OF_ASC_NODE":316.4126,"ARG_OF_PERICENTER":87.0467,"MEAN_ANOMALY":273.0726,"EPHEMERIS_TYPE":0,"CLASSIFICATION_TYPE":"U","NORAD_CAT_ID":52693,"ELEMENT_SET_NO":999,"REV_AT_EPOCH":8429,"BSTAR":0.00032802,"MEAN_MOTION_DOT":4.938e-5,"MEAN_MOTION_DDOT":0},{"OBJECT_NAME":"STARLINK-4072","OBJECT_ID":"2022-053AQ","EPOCH":"2023-11-20T11:06:07.958304","MEAN_MOTION":15.08848794,"ECCENTRICITY":0.0001611,"INCLINATION":53.2187,"RA_OF_ASC_NODE":316.0441,"ARG_OF_PERICENTER":100.2936,"MEAN_ANOMALY":259.8238,"EPHEMERIS_TYPE":0,"CLASSIFICATION_TYPE":"U","NORAD_CAT_ID":52694,"ELEMENT_SET_NO":999,"REV_AT_EPOCH":8430,"BSTAR":8.6647e-5,"MEAN_MOTION_DOT":1.092e-5,"MEAN_MOTION_DDOT":0},{"OBJECT_NAME":"STARLINK-4041","OBJECT_ID":"2022-053AR","EPOCH":"2023-11-20T07:14:55.639968","MEAN_MOTION":15.08842995,"ECCENTRICITY":0.0001528,"INCLINATION":53.2171,"RA_OF_ASC_NODE":321.5692,"ARG_OF_PERICENTER":92.7674,"MEAN_ANOMALY":267.3493,"EPHEMERIS_TYPE":0,"CLASSIFICATION_TYPE":"U","NORAD_CAT_ID":52695,"ELEMENT_SET_NO":999,"REV_AT_EPOCH":8422,"BSTAR":0.0001069,"MEAN_MOTION_DOT":1.414e-5,"MEAN_MOTION_DDOT":0},{"OBJECT_NAME":"STARLINK-4025","OBJECT_ID":"2022-053AS","EPOCH":"2023-11-20T09:14:50.734752","MEAN_MOTION":15.08852801,"ECCENTRICITY":0.0001542,"INCLINATION":53.2176,"RA_OF_ASC_NODE":316.3931,"ARG_OF_PERICENTER":96.5681,"MEAN_ANOMALY":263.5487,"EPHEMERIS_TYPE":0,"CLASSIFICATION_TYPE":"U","NORAD_CAT_ID":52696,"ELEMENT_SET_NO":999,"REV_AT_EPOCH":8389,"BSTAR":6.417e-5,"MEAN_MOTION_DOT":7.34e-6,"MEAN_MOTION_DDOT":0}]
